start=new Date('2023-03-15T00:00:00.000Z').valueOf();
sats=[{"TLE_LINE1":"1 45053U 20006K   23073.82648975  .00017958  00000-0  63775-3 0  9990","CLASSIFICATION_TYPE":"U","DECAY_DATE":null,"ECCENTRICITY":"0.00068790","OBJECT_TYPE":"PAYLOAD","NORAD_CAT_ID":"45053","MEAN_MOTION_DDOT":"0.0000000000000","APOAPSIS":"483.223","REF_FRAME":"TEME","EPOCH":"2023-03-14T19:50:08.714400","PERIOD":"94.173","PERIAPSIS":"473.789","INCLINATION":"52.9905","FILE":"3860643","MEAN_ANOMALY":"334.8318","MEAN_MOTION":"15.29099108","OBJECT_ID":"2020-006K","TIME_SYSTEM":"UTC","BSTAR":"0.00063775000000","REV_AT_EPOCH":"17245","EPHEMERIS_TYPE":"0","SEMIMAJOR_AXIS":"6856.641","LAUNCH_DATE":"2020-01-29","MEAN_MOTION_DOT":"0.00017958","CENTER_NAME":"EARTH","RA_OF_ASC_NODE":"110.6976","SITE":"AFETR","RCS_SIZE":"LARGE","TLE_LINE2":"2 45053  52.9905 110.6976 0006879  25.3016 334.8318 15.29099108172459","OBJECT_NAME":"STARLINK-1155","GP_ID":"228105863","ARG_OF_PERICENTER":"25.3016","COUNTRY_CODE":"US","ELEMENT_SET_NO":"999","MEAN_ELEMENT_THEORY":"SGP4"},{"MEAN_MOTION":"15.06401628","TIME_SYSTEM":"UTC","OBJECT_ID":"2020-006L","BSTAR":"0.00015602000000","REV_AT_EPOCH":"17198","EPHEMERIS_TYPE":"0","SEMIMAJOR_AXIS":"6925.344","LAUNCH_DATE":"2020-01-29","MEAN_MOTION_DOT":"0.00002043","CENTER_NAME":"EARTH","RA_OF_ASC_NODE":"145.3439","SITE":"AFETR","TLE_LINE2":"2 45054  53.0523 145.3439 0001317  66.4151 293.6976 15.06401628171983","RCS_SIZE":"LARGE","OBJECT_NAME":"STARLINK-1156","GP_ID":"228073181","ELEMENT_SET_NO":"999","COUNTRY_CODE":"US","MEAN_ELEMENT_THEORY":"SGP4","ARG_OF_PERICENTER":"66.4151","TLE_LINE1":"1 45054U 20006L   23073.45867507  .00002043  00000-0  15602-3 0  9999","CLASSIFICATION_TYPE":"U","DECAY_DATE":null,"OBJECT_TYPE":"PAYLOAD","ECCENTRICITY":"0.00013170","NORAD_CAT_ID":"45054","MEAN_MOTION_DDOT":"0.0000000000000","APOAPSIS":"548.121","EPOCH":"2023-03-14T11:00:29.526048","REF_FRAME":"TEME","PERIOD":"95.592","PERIAPSIS":"546.297","INCLINATION":"53.0523","FILE":"3860373","MEAN_ANOMALY":"293.6976"},{"REF_FRAME":"TEME","EPOCH":"2023-03-14T14:32:49.055712","APOAPSIS":"548.120","PERIAPSIS":"546.397","FILE":"3860643","INCLINATION":"53.0531","MEAN_ANOMALY":"280.7833","PERIOD":"95.593","TLE_LINE1":"1 45057U 20006P   23073.60612333 -.00000068  00000-0  14298-4 0  9991","CLASSIFICATION_TYPE":"U","DECAY_DATE":null,"ECCENTRICITY":"0.00012440","OBJECT_TYPE":"PAYLOAD","NORAD_CAT_ID":"45057","MEAN_MOTION_DDOT":"0.0000000000000","CENTER_NAME":"EARTH","MEAN_MOTION_DOT":"-0.00000068","RA_OF_ASC_NODE":"144.6813","LAUNCH_DATE":"2020-01-29","SEMIMAJOR_AXIS":"6925.394","RCS_SIZE":"LARGE","TLE_LINE2":"2 45057  53.0531 144.6813 0001244  79.3296 280.7833 15.06385290172015","OBJECT_NAME":"STARLINK-1159","GP_ID":"228104375","ELEMENT_SET_NO":"999","COUNTRY_CODE":"US","ARG_OF_PERICENTER":"79.3296","MEAN_ELEMENT_THEORY":"SGP4","SITE":"AFETR","MEAN_MOTION":"15.06385290","OBJECT_ID":"2020-006P","TIME_SYSTEM":"UTC","BSTAR":"0.00001429800000","REV_AT_EPOCH":"17201","EPHEMERIS_TYPE":"0"},{"INCLINATION":"53.0516","FILE":"3860373","MEAN_ANOMALY":"279.2354","PERIAPSIS":"546.116","PERIOD":"95.593","EPOCH":"2023-03-14T11:11:07.989216","REF_FRAME":"TEME","APOAPSIS":"548.389","MEAN_MOTION_DDOT":"0.0000000000000","ECCENTRICITY":"0.00016410","OBJECT_TYPE":"PAYLOAD","NORAD_CAT_ID":"45058","DECAY_DATE":null,"TLE_LINE1":"1 45058U 20006Q   23073.46606469  .00029172  00000-0  19699-2 0  9993","CLASSIFICATION_TYPE":"U","OBJECT_NAME":"STARLINK-1162","COUNTRY_CODE":"US","GP_ID":"228072680","ELEMENT_SET_NO":"999","ARG_OF_PERICENTER":"80.8821","MEAN_ELEMENT_THEORY":"SGP4","TLE_LINE2":"2 45058  53.0516 145.3117 0001641  80.8821 279.2354 15.06387167171998","RCS_SIZE":"LARGE","SITE":"AFETR","RA_OF_ASC_NODE":"145.3117","MEAN_MOTION_DOT":"0.00029172","CENTER_NAME":"EARTH","LAUNCH_DATE":"2020-01-29","SEMIMAJOR_AXIS":"6925.388","REV_AT_EPOCH":"17199","EPHEMERIS_TYPE":"0","OBJECT_ID":"2020-006Q","TIME_SYSTEM":"UTC","BSTAR":"0.00196990000000","MEAN_MOTION":"15.06387167"},{"MEAN_MOTION":"15.06416670","BSTAR":"0.00159100000000","OBJECT_ID":"2020-006R","TIME_SYSTEM":"UTC","EPHEMERIS_TYPE":"0","REV_AT_EPOCH":"17205","LAUNCH_DATE":"2020-01-29","SEMIMAJOR_AXIS":"6925.297","MEAN_MOTION_DOT":"0.00023507","CENTER_NAME":"EARTH","RA_OF_ASC_NODE":"143.4247","SITE":"AFETR","RCS_SIZE":"LARGE","TLE_LINE2":"2 45059  53.0515 143.4247 0001563  73.5523 286.5637 15.06416670172057","GP_ID":"228105365","COUNTRY_CODE":"US","ELEMENT_SET_NO":"999","MEAN_ELEMENT_THEORY":"SGP4","ARG_OF_PERICENTER":"73.5523","OBJECT_NAME":"STARLINK-1165","CLASSIFICATION_TYPE":"U","TLE_LINE1":"1 45059U 20006R   23073.88626065  .00023507  00000-0  15910-2 0  9992","DECAY_DATE":null,"NORAD_CAT_ID":"45059","ECCENTRICITY":"0.00015630","OBJECT_TYPE":"PAYLOAD","MEAN_MOTION_DDOT":"0.0000000000000","APOAPSIS":"548.245","EPOCH":"2023-03-14T21:16:12.920160","REF_FRAME":"TEME","PERIOD":"95.591","PERIAPSIS":"546.080","FILE":"3860643","MEAN_ANOMALY":"286.5637","INCLINATION":"53.0515"},{"APOAPSIS":"548.055","REF_FRAME":"TEME","EPOCH":"2023-03-14T21:10:52.137696","PERIOD":"95.592","PERIAPSIS":"546.383","FILE":"3860643","MEAN_ANOMALY":"268.9369","INCLINATION":"53.0519","CLASSIFICATION_TYPE":"U","TLE_LINE1":"1 45060U 20006S   23073.88254789  .00002410  00000-0  18062-3 0  9996","DECAY_DATE":null,"NORAD_CAT_ID":"45060","ECCENTRICITY":"0.00012070","OBJECT_TYPE":"PAYLOAD","MEAN_MOTION_DDOT":"0.0000000000000","SEMIMAJOR_AXIS":"6925.354","LAUNCH_DATE":"2020-01-29","CENTER_NAME":"EARTH","MEAN_MOTION_DOT":"0.00002410","RA_OF_ASC_NODE":"143.4409","SITE":"AFETR","RCS_SIZE":"LARGE","TLE_LINE2":"2 45060  53.0519 143.4409 0001207  91.1758 268.9369 15.06398263172057","COUNTRY_CODE":"US","GP_ID":"228104624","MEAN_ELEMENT_THEORY":"SGP4","ELEMENT_SET_NO":"999","ARG_OF_PERICENTER":"91.1758","OBJECT_NAME":"STARLINK-1166","MEAN_MOTION":"15.06398263","BSTAR":"0.00018062000000","TIME_SYSTEM":"UTC","OBJECT_ID":"2020-006S","EPHEMERIS_TYPE":"0","REV_AT_EPOCH":"17205"},{"EPHEMERIS_TYPE":"0","REV_AT_EPOCH":"17205","BSTAR":"0.00101650000000","OBJECT_ID":"2020-006T","TIME_SYSTEM":"UTC","MEAN_MOTION":"15.06423391","SITE":"AFETR","GP_ID":"228104874","ELEMENT_SET_NO":"999","COUNTRY_CODE":"US","ARG_OF_PERICENTER":"89.0082","MEAN_ELEMENT_THEORY":"SGP4","OBJECT_NAME":"STARLINK-1169","RCS_SIZE":"LARGE","TLE_LINE2":"2 45061  53.0562 143.4057 0001523  89.0082 271.1082 15.06423391172051","SEMIMAJOR_AXIS":"6925.277","LAUNCH_DATE":"2020-01-29","RA_OF_ASC_NODE":"143.4057","CENTER_NAME":"EARTH","MEAN_MOTION_DOT":"0.00014901","MEAN_MOTION_DDOT":"0.0000000000000","NORAD_CAT_ID":"45061","OBJECT_TYPE":"PAYLOAD","ECCENTRICITY":"0.00015230","DECAY_DATE":null,"CLASSIFICATION_TYPE":"U","TLE_LINE1":"1 45061U 20006T   23073.88992607  .00014901  00000-0  10165-2 0  9998","PERIOD":"95.591","FILE":"3860643","MEAN_ANOMALY":"271.1082","INCLINATION":"53.0562","PERIAPSIS":"546.087","APOAPSIS":"548.197","EPOCH":"2023-03-14T21:21:29.612448","REF_FRAME":"TEME"},{"MEAN_MOTION":"15.06386637","TIME_SYSTEM":"UTC","OBJECT_ID":"2020-006U","BSTAR":"0.00404130000000","REV_AT_EPOCH":"17201","EPHEMERIS_TYPE":"0","SEMIMAJOR_AXIS":"6925.390","LAUNCH_DATE":"2020-01-29","MEAN_MOTION_DOT":"0.00060410","CENTER_NAME":"EARTH","RA_OF_ASC_NODE":"144.6673","SITE":"AFETR","TLE_LINE2":"2 45062  53.0516 144.6673 0001633  92.7514 267.3662 15.06386637172019","RCS_SIZE":"LARGE","OBJECT_NAME":"STARLINK-1171","ELEMENT_SET_NO":"999","GP_ID":"228105126","COUNTRY_CODE":"US","MEAN_ELEMENT_THEORY":"SGP4","ARG_OF_PERICENTER":"92.7514","TLE_LINE1":"1 45062U 20006U   23073.60980390  .00060410  00000-0  40413-2 0  9990","CLASSIFICATION_TYPE":"U","DECAY_DATE":null,"OBJECT_TYPE":"PAYLOAD","ECCENTRICITY":"0.00016330","NORAD_CAT_ID":"45062","MEAN_MOTION_DDOT":"0.0000000000000","APOAPSIS":"548.385","REF_FRAME":"TEME","EPOCH":"2023-03-14T14:38:07.056960","PERIOD":"95.593","PERIAPSIS":"546.124","INCLINATION":"53.0516","FILE":"3860643","MEAN_ANOMALY":"267.3662"},{"APOAPSIS":"548.377","REF_FRAME":"TEME","EPOCH":"2023-03-14T14:56:43.111680","PERIOD":"95.592","PERIAPSIS":"546.002","MEAN_ANOMALY":"289.9101","FILE":"3860643","INCLINATION":"53.0521","TLE_LINE1":"1 45064U 20006W   23073.62272120  .00009158  00000-0  63276-3 0  9994","CLASSIFICATION_TYPE":"U","DECAY_DATE":null,"ECCENTRICITY":"0.00017150","OBJECT_TYPE":"PAYLOAD","NORAD_CAT_ID":"45064","MEAN_MOTION_DDOT":"0.0000000000000","SEMIMAJOR_AXIS":"6925.324","LAUNCH_DATE":"2020-01-29","CENTER_NAME":"EARTH","MEAN_MOTION_DOT":"0.00009158","RA_OF_ASC_NODE":"124.6073","SITE":"AFETR","RCS_SIZE":"LARGE","TLE_LINE2":"2 45064  53.0521 124.6073 0001715  70.2073 289.9101 15.06407887172290","OBJECT_NAME":"STARLINK-1133","ELEMENT_SET_NO":"999","GP_ID":"228105864","COUNTRY_CODE":"US","MEAN_ELEMENT_THEORY":"SGP4","ARG_OF_PERICENTER":"70.2073","MEAN_MOTION":"15.06407887","TIME_SYSTEM":"UTC","OBJECT_ID":"2020-006W","BSTAR":"0.00063276000000","REV_AT_EPOCH":"17229","EPHEMERIS_TYPE":"0"},{"RCS_SIZE":"LARGE","TLE_LINE2":"2 45065  53.0515 123.6967 0001888  73.6187 286.5009 15.06368845172323","GP_ID":"228104126","COUNTRY_CODE":"US","ARG_OF_PERICENTER":"73.6187","ELEMENT_SET_NO":"999","MEAN_ELEMENT_THEORY":"SGP4","OBJECT_NAME":"STARLINK-1139","SITE":"AFETR","MEAN_MOTION_DOT":"-0.00001662","CENTER_NAME":"EARTH","RA_OF_ASC_NODE":"123.6967","LAUNCH_DATE":"2020-01-29","SEMIMAJOR_AXIS":"6925.444","EPHEMERIS_TYPE":"0","REV_AT_EPOCH":"17232","MEAN_MOTION":"15.06368845","BSTAR":"-0.00009277100000","TIME_SYSTEM":"UTC","OBJECT_ID":"2020-006X","PERIAPSIS":"546.002","FILE":"3860643","MEAN_ANOMALY":"286.5009","INCLINATION":"53.0515","PERIOD":"95.594","EPOCH":"2023-03-14T19:48:35.120736","REF_FRAME":"TEME","APOAPSIS":"548.617","NORAD_CAT_ID":"45065","ECCENTRICITY":"0.00018880","OBJECT_TYPE":"PAYLOAD","MEAN_MOTION_DDOT":"0.0000000000000","CLASSIFICATION_TYPE":"U","TLE_LINE1":"1 45065U 20006X   23073.82540649 -.00001662  00000-0 -92771-4 0  9998","DECAY_DATE":null}];
